INTELSAT 30 (IS-30)     
1 40271U 14062A   17263.72757625 -.00000179  00000-0  00000-0 0  9995
2 40271   0.0242 165.3481 0002201 275.2701  86.0516  1.00268722 10680
ARSAT 1                 
1 40272U 14062B   17263.52132615 -.00000289  00000-0  00000-0 0  9992
2 40272   0.0214 137.7774 0000919  56.4791 281.2074  1.00270651 10615
EXPRESS-AM6             
1 40277U 14064A   17263.91758755  .00000069  00000-0  00000-0 0  9996
2 40277   0.0464 316.0694 0000903 344.4252  82.8282  1.00273961  9582
GSAT-16                 
1 40332U 14078A   17263.84746712  .00000056  00000-0  00000-0 0  9991
2 40332   0.0176 132.4376 0005523 334.9548 252.6721  1.00273179 10124
DIRECTV 14              
1 40333U 14078B   17263.72757625 -.00000154  00000-0  00000+0 0  9993
2 40333   0.0363 270.9135 0001387  68.5379 183.0460  1.00272144 10241
YAMAL 401               
1 40345U 14082A   17263.80118831 -.00000257  00000-0  00000-0 0  9995
2 40345   0.0207 135.2234 0000679 138.6050 104.4261  1.00270710 10414
ASTRA 2G                
1 40364U 14089A   17262.92450395  .00000119  00000-0  00000-0 0  9995
2 40364   0.0329   2.2479 0002220  92.3447 265.4354  1.00274563  9963
FENGYUN 2G              
1 40367U 14090A   17263.94103519 -.00000359  00000-0  00000-0 0  9993
2 40367   0.2632 238.5719 0003619  38.1366 166.7992  1.00275239 10040
INMARSAT 5-F2           
1 40384U 15005A   17261.70809821 -.00000318  00000-0  00000-0 0  9995
2 40384   0.0229 178.4634 0000494 191.8245 187.4224  1.00271444  9655
ABS-3A                  
1 40424U 15010A   17262.01356684 -.00000059  00000-0  00000+0 0  9996
2 40424   0.0202 165.2480 0002343 296.1118 258.6665  1.00270622  9395
EUTELSAT 115 WEST B     
1 40425U 15010B   17262.32357701 -.00000057  00000-0  00000+0 0  9990
2 40425   0.0135  44.3357 0000183 351.6270 324.0404  1.00272583  9428
EXPRESS-AM7             
1 40505U 15012A   17263.92966130  .00000122  00000-0  00000+0 0  9992
2 40505   0.0000 206.0916 0001933 335.0231 193.5425  1.00271949  9363
IRNSS-1D                
1 40547U 15018A   17263.50596495 -.00000321  00000-0  00000+0 0  9993
2 40547  28.8961 293.5197 0020949 187.8382 172.1462  1.00276566  9244
THOR 7                  
1 40613U 15022A   17263.00435115 -.00000039  00000-0  00000+0 0  9994
2 40613   0.0141 156.8150 0002427  20.0199 183.1695  1.00273135  8816
TURKMENALEM52E/MONACOSAT
1 40617U 15023A   17262.85845133  .00000073  00000-0  00000-0 0  9994
2 40617   0.0192 156.6612 0001994  17.6705 185.6705  1.00269318  8839
DIRECTV 15              
1 40663U 15026A   17263.28719007 -.00000133  00000-0  00000-0 0  9994
2 40663   0.0119 128.3432 0000443  74.1178 157.5404  1.00270414  8524
SKY MEXICO-1            
1 40664U 15026B   17263.22081467 -.00000264  00000-0  00000-0 0  9996
2 40664   0.0168 232.2031 0001925 307.3885 180.4118  1.00268287  8556
METEOSAT-11 (MSG-4)     
1 40732U 15034A   17263.66201935 -.00000059  00000-0  00000-0 0  9995
2 40732   1.6672 235.3943 0000964   6.8466 352.3165  1.00269669  8044
STAR ONE C4             
1 40733U 15034B   17263.19643229 -.00000295  00000-0  00000-0 0  9992
2 40733   0.0102  92.1765 0000911 128.4190 139.3977  1.00270268  8034
INTELSAT 34 (IS-34)     
1 40874U 15039A   17261.16176563 -.00000318  00000-0  00000-0 0  9996
2 40874   0.0215 174.5792 0000410 216.4389 328.9844  1.00270211  7645
EUTELSAT 8 WEST B       
1 40875U 15039B   17263.02469045 -.00000096  00000-0  00000+0 0  9996
2 40875   0.0708  22.3801 0002457 164.1698 173.4499  1.00272485  7687
GSAT-6                  
1 40880U 15041A   17263.76949785 -.00000194  00000-0  00000-0 0  9990
2 40880   0.0631  94.8864 0008492 160.5881 104.4361  1.00271470  7641
INMARSAT 5-F3           
1 40882U 15042A   17263.50228565  .00000020  00000-0  00000-0 0  9998
2 40882   0.0245 173.0312 0000096 308.7441 238.2256  1.00270021  7563
TJS-1                   
1 40892U 15046A   17263.77757611 -.00000185  00000-0  00000-0 0  9994
2 40892   0.0767 126.3875 0003837 190.5142 117.8860  1.00269961  7552
EXPRESS-AM8             
1 40895U 15048A   17263.89490352 -.00000140  00000-0  00000+0 0  9998
2 40895   0.0225 294.5115 0000790 348.0597  25.5575  1.00271521  7371
SKY MUSTER (NBN1A)      
1 40940U 15054A   17263.61136411 -.00000308  00000-0  00000+0 0  9995
2 40940   0.0116 225.2320 0001629 314.8398 179.9321  1.00270577  7285
ARSAT 2                 
1 40941U 15054B   17263.22697904 -.00000255  00000-0  00000-0 0  9994
2 40941   0.0220 125.3922 0001174  56.8137 177.7969  1.00271669  7321
MORELOS 3               
1 40946U 15056A   17263.23052680 -.00000077  00000-0  00000+0 0  9999
2 40946   6.3038 329.2420 0002558 184.3694 175.5816  1.00272469  7283
APSTAR 9                
1 40982U 15059A   17263.60641287 -.00000295  00000-0  00000-0 0  9993
2 40982   0.0242 166.5543 0000821  76.5025 116.9348  1.00270724  7157
TURKSAT 4B              
1 40984U 15060A   17263.86132274  .00000086  00000-0  00000-0 0  9993
2 40984   0.0198 135.1836 0001818  39.1161 185.7068  1.00275504  7119
CHINASAT 2C (ZX 2C)     
1 41021U 15063A   17263.94415841 -.00000352  00000-0  00000-0 0  9999
2 41021   0.0148 245.4603 0002626  49.5649 148.3139  1.00272123  7015
GSAT-15                 
1 41028U 15065A   17263.74094110 -.00000286  00000-0  00000-0 0  9994
2 41028   0.0153 191.5282 0001044 346.3712 182.1053  1.00271035  6835
BADR-7 (ARABSAT-6B)     
1 41029U 15065B   17264.06732463  .00000117  00000-0  00000+0 0  9992
2 41029   0.0636 260.1099 0005218 331.0963 179.2001  1.00275915  6917
LAOSAT 1                
1 41034U 15067A   17263.64386516 -.00000372  00000-0  00000+0 0  9991
2 41034   0.0137 166.2330 0003197  41.9623 151.7874  1.00267677  6848
TELSTAR 12V             
1 41036U 15068A   17264.04137313 -.00000147  00000-0  00000+0 0  9998
2 41036   0.0243 171.9856 0001626   3.7421 184.2736  1.00270182  6732
CHINASAT 1C (ZX 1C)     
1 41103U 15073A   17263.94487657 -.00000179  00000-0  00000-0 0  9992
2 41103   0.0198 276.4599 0003955 350.8843 154.3406  1.00271242  6675
ELEKTRO-L 2             
1 41105U 15074A   17264.24683421 -.00000124  00000-0  00000+0 0  9995
2 41105   0.0782  82.3003 0002449 174.3849 268.4794  1.00271166  6528
COSMOS 2513             
1 41121U 15075A   17263.71496897 -.00000167  00000-0  00000-0 0  9992
2 41121   0.0703 116.4015 0003133  89.5510 131.4779  1.00271223  6597
EXPRESS-AMU1            
1 41191U 15082A   17264.05604850  .00000127  00000-0  00000+0 0  9999
2 41191   0.0108 132.0633 0001571  54.1227 230.2282  1.00275035  6514
GAOFEN 4                
1 41194U 15083A   17264.32618678 -.00000362  00000-0  00000+0 0  9998
2 41194   0.0733 106.5649 0005112 134.1043 342.8699  1.00270921  6492
BELINTERSAT-1           
1 41238U 16001A   17264.14121946  .00000079  00000-0  00000+0 0  9999
2 41238   0.0300 292.7599 0001219 202.4907 327.2867  1.00272253  6275
IRNSS-1E                
1 41241U 16003A   17264.00364705 -.00000287  00000-0  00000+0 0  9994
2 41241  28.9331 113.0330 0018550 181.4666 178.6645  1.00266815  6206
INTELSAT 29E (IS-29E)   
1 41308U 16004A   17263.14107589 -.00000312  00000-0  00000-0 0  9998
2 41308   0.0333 252.0182 0001472 285.6971 182.2883  1.00271173  6177
EUTELSAT 9B             
1 41310U 16005A   17262.97755304  .00000031  00000-0  00000-0 0  9993
2 41310   0.0474 102.8491 0003873 158.7813  98.3288  1.00272164  6114
SES-9                   
1 41380U 16013A   17263.69981852 -.00000374  00000-0  00000+0 0  9998
2 41380   0.0431 300.6963 0001123 211.1127 208.2011  1.00272052  5755
EUTELSAT 65 WEST A      
1 41382U 16014A   17263.18316889 -.00000306  00000-0  00000+0 0  9992
2 41382   0.0242 348.3284 0001581 210.5606 161.1051  1.00268620  5640
IRNSS-1F                
1 41384U 16015A   17262.64210929  .00000120  00000-0  00000-0 0  9997
2 41384   3.9690 262.7461 0020370 187.7252 171.8605  1.00272923  5684
IRNSS-1G                
1 41469U 16027A   17263.37424056 -.00000371  00000-0  00000-0 0  9992
2 41469   4.0385 264.1565 0004021 205.7623 153.8392  1.00271924  5199
JCSAT 2B                
1 41471U 16028A   17263.57322031 -.00000195  00000-0  00000+0 0  9991
2 41471   0.0250 174.0983 0001672   3.3414 182.5611  1.00270075  5088
THAICOM 8               
1 41552U 16031A   17263.78253961 -.00000150  00000-0  00000-0 0  9995
2 41552   0.0692  43.7018 0001339  14.2847 302.0308  1.00273062  4721
INTELSAT 31 (IS-31)     
1 41581U 16035A   17263.26581140 -.00000181  00000-0  00000-0 0  9991
2 41581   0.0237 230.6303 0001217 359.1538 130.2086  1.00271469  4694
BEIDOU G7               
1 41586U 16037A   17263.49493852 -.00000279  00000-0  00000-0 0  9993
2 41586   1.0963 322.9138 0003150 275.5185  83.7939  1.00268539  4798
ABS-2A (MONGOLSAT-1)    
1 41588U 16038A   17262.79564046 -.00000115  00000-0  00000-0 0  9991
2 41588   0.0098 135.7872 0002197 314.3706 269.8697  1.00271270  4710
EUTELSAT 117 WEST B     
1 41589U 16038B   17262.32925344 -.00000043  00000-0  00000-0 0  9993
2 41589   0.0027  52.9386 0000182  41.6206 265.4429  1.00270761  4696
BRISAT                  
1 41591U 16039A   17262.58565957 -.00000228  00000-0  00000+0 0  9999
2 41591   0.0226 178.6926 0001935 359.3375 181.9706  1.00268691  4632
ECHOSTAR 18             
1 41592U 16039B   17263.17244743 -.00000312  00000-0  00000+0 0  9997
2 41592   0.0247 186.7989 0001826  10.3032 162.8918  1.00269264  4627
TIANTONG-1 1            
1 41725U 16048A   17263.83565012 -.00000348  00000-0  00000-0 0  9993
2 41725   4.4547 325.4562 0002897 308.2487 128.3784  1.00267962  4279
JCSAT-16                
1 41729U 16050A   17262.55360875 -.00000124  00000-0  00000+0 0  9999
2 41729   0.0252 165.4368 0001607  20.8723 173.6889  1.00269253  4063
INTELSAT 36 (IS-36)     
1 41747U 16053A   17263.81002821 -.00000053  00000-0  00000-0 0  9998
2 41747   0.0120 167.0322 0003055 171.6818  21.2733  1.00269130  3984
